PELICAN-1               
1 58296U 23174AS  26197.26569272  .00006258  00000+0  48729-4 0  9995
2 58296  97.4019 299.4131 0005546 191.9703 168.1429 15.72124333150739
PELICAN-2               
1 62631U 25009Y   26197.53283358 -.00000004  00000+0  18639-5 0  9992
2 62631  97.2051 288.0660 0002374 117.2299 242.9190 15.40622121 84071
PELICAN-3               
1 65315U 25188A   26197.65897991  .00004849  00000+0  11830-3 0  9993
2 65315  97.1978 273.3733 0002139 111.2193 248.9283 15.41341928 49854
PELICAN-4               
1 65316U 25188B   26197.48425676  .00004443  00000+0  11191-3 0  9992
2 65316  97.1996 273.3509 0001644  81.2693 278.8740 15.40416965 49827
PELICAN-5               
1 66667U 25276B   26197.15383316  .00002675  00000+0  87566-4 0  9993
2 66667  97.4127 272.1257 0001615  23.9342 336.1974 15.32569206 34958
PELICAN-6               
1 66703U 25276AP  26197.67730951  .00009608  00000+0  31876-3 0  9997
2 66703  97.3740 272.6477 0002951  49.5847 310.5652 15.31449912 35046
PELICAN-7               
1 69017U 26100AP  26197.63919792  .00000587  00000+0  27415-4 0  9995
2 69017  97.3849  95.0652 0003410  91.3585 268.8042 15.23610061 11299
PELICAN-9               
1 69019U 26100AR  26197.15712788  .00001091  00000+0  49956-4 0  9995
2 69019  97.3651  94.4153 0001644 113.3486 246.7923 15.22571519 11211
