{"fetched_at":"2026-07-17T06:37:53.235Z","source":"https://celestrak.org/NORAD/elements/gp.php?GROUP=planet&FORMAT=JSON","constellation":"pelican","records":[{"OBJECT_NAME":"PELICAN-1","OBJECT_ID":"2023-174AS","EPOCH":"2026-07-16T06:22:35.851008","CLASSIFICATION_TYPE":"U","MEAN_MOTION":15.72124333,"ECCENTRICITY":0.0005546,"INCLINATION":97.4019,"RA_OF_ASC_NODE":299.4131,"ARG_OF_PERICENTER":191.9703,"MEAN_ANOMALY":168.1429,"EPHEMERIS_TYPE":0,"NORAD_CAT_ID":58296,"ELEMENT_SET_NO":999,"REV_AT_EPOCH":15073,"BSTAR":0.000048729,"MEAN_MOTION_DOT":0.00006258,"MEAN_MOTION_DDOT":0},{"OBJECT_NAME":"PELICAN-2","OBJECT_ID":"2025-009Y","EPOCH":"2026-07-16T12:47:16.821312","CLASSIFICATION_TYPE":"U","MEAN_MOTION":15.40622121,"ECCENTRICITY":0.0002374,"INCLINATION":97.2051,"RA_OF_ASC_NODE":288.066,"ARG_OF_PERICENTER":117.2299,"MEAN_ANOMALY":242.919,"EPHEMERIS_TYPE":0,"NORAD_CAT_ID":62631,"ELEMENT_SET_NO":999,"REV_AT_EPOCH":8407,"BSTAR":0.0000018639,"MEAN_MOTION_DOT":-4e-8,"MEAN_MOTION_DDOT":0},{"OBJECT_NAME":"PELICAN-3","OBJECT_ID":"2025-188A","EPOCH":"2026-07-16T15:48:55.864224","CLASSIFICATION_TYPE":"U","MEAN_MOTION":15.41341928,"ECCENTRICITY":0.0002139,"INCLINATION":97.1978,"RA_OF_ASC_NODE":273.3733,"ARG_OF_PERICENTER":111.2193,"MEAN_ANOMALY":248.9283,"EPHEMERIS_TYPE":0,"NORAD_CAT_ID":65315,"ELEMENT_SET_NO":999,"REV_AT_EPOCH":4985,"BSTAR":0.0001183,"MEAN_MOTION_DOT":0.00004849,"MEAN_MOTION_DDOT":0},{"OBJECT_NAME":"PELICAN-4","OBJECT_ID":"2025-188B","EPOCH":"2026-07-16T11:37:19.784064","CLASSIFICATION_TYPE":"U","MEAN_MOTION":15.40416965,"ECCENTRICITY":0.0001644,"INCLINATION":97.1996,"RA_OF_ASC_NODE":273.3509,"ARG_OF_PERICENTER":81.2693,"MEAN_ANOMALY":278.874,"EPHEMERIS_TYPE":0,"NORAD_CAT_ID":65316,"ELEMENT_SET_NO":999,"REV_AT_EPOCH":4982,"BSTAR":0.00011191,"MEAN_MOTION_DOT":0.00004443,"MEAN_MOTION_DDOT":0},{"OBJECT_NAME":"PELICAN-5","OBJECT_ID":"2025-276B","EPOCH":"2026-07-16T03:41:31.185024","CLASSIFICATION_TYPE":"U","MEAN_MOTION":15.32569206,"ECCENTRICITY":0.0001615,"INCLINATION":97.4127,"RA_OF_ASC_NODE":272.1257,"ARG_OF_PERICENTER":23.9342,"MEAN_ANOMALY":336.1974,"EPHEMERIS_TYPE":0,"NORAD_CAT_ID":66667,"ELEMENT_SET_NO":999,"REV_AT_EPOCH":3495,"BSTAR":0.000087566,"MEAN_MOTION_DOT":0.00002675,"MEAN_MOTION_DDOT":0},{"OBJECT_NAME":"PELICAN-6","OBJECT_ID":"2025-276AP","EPOCH":"2026-07-16T16:15:19.541664","CLASSIFICATION_TYPE":"U","MEAN_MOTION":15.31449912,"ECCENTRICITY":0.0002951,"INCLINATION":97.374,"RA_OF_ASC_NODE":272.6477,"ARG_OF_PERICENTER":49.5847,"MEAN_ANOMALY":310.5652,"EPHEMERIS_TYPE":0,"NORAD_CAT_ID":66703,"ELEMENT_SET_NO":999,"REV_AT_EPOCH":3504,"BSTAR":0.00031876,"MEAN_MOTION_DOT":0.00009608,"MEAN_MOTION_DDOT":0},{"OBJECT_NAME":"PELICAN-7","OBJECT_ID":"2026-100AP","EPOCH":"2026-07-16T15:20:26.700288","CLASSIFICATION_TYPE":"U","MEAN_MOTION":15.23610061,"ECCENTRICITY":0.000341,"INCLINATION":97.3849,"RA_OF_ASC_NODE":95.0652,"ARG_OF_PERICENTER":91.3585,"MEAN_ANOMALY":268.8042,"EPHEMERIS_TYPE":0,"NORAD_CAT_ID":69017,"ELEMENT_SET_NO":999,"REV_AT_EPOCH":1129,"BSTAR":0.000027415,"MEAN_MOTION_DOT":0.00000587,"MEAN_MOTION_DDOT":0},{"OBJECT_NAME":"PELICAN-9","OBJECT_ID":"2026-100AR","EPOCH":"2026-07-16T03:46:15.848832","CLASSIFICATION_TYPE":"U","MEAN_MOTION":15.22571519,"ECCENTRICITY":0.0001644,"INCLINATION":97.3651,"RA_OF_ASC_NODE":94.4153,"ARG_OF_PERICENTER":113.3486,"MEAN_ANOMALY":246.7923,"EPHEMERIS_TYPE":0,"NORAD_CAT_ID":69019,"ELEMENT_SET_NO":999,"REV_AT_EPOCH":1121,"BSTAR":0.000049956,"MEAN_MOTION_DOT":0.00001091,"MEAN_MOTION_DDOT":0}]}
